[{"OBJECT_NAME":"GNOMES-5","OBJECT_ID":"2024-149DL","EPOCH":"2026-03-09T22:53:01.372704","MEAN_MOTION":15.00280005,"ECCENTRICITY":0.00076217,"INCLINATION":97.6857,"RA_OF_ASC_NODE":148.0235,"ARG_OF_PERICENTER":89.6268,"MEAN_ANOMALY":270.5829,"EPHEMERIS_TYPE":0,"CLASSIFICATION_TYPE":"U","NORAD_CAT_ID":60574,"ELEMENT_SET_NO":999,"REV_AT_EPOCH":8527,"BSTAR":0.00047414566,"MEAN_MOTION_DOT":5.885e-5,"MEAN_MOTION_DDOT":0},{"OBJECT_NAME":"STARLINK-36055","OBJECT_ID":"2025-280AB","EPOCH":"2026-03-09T21:27:22.920192","MEAN_MOTION":14.98334393,"ECCENTRICITY":0.00023297,"INCLINATION":70.0024,"RA_OF_ASC_NODE":334.0534,"ARG_OF_PERICENTER":240.6927,"MEAN_ANOMALY":119.4,"EPHEMERIS_TYPE":0,"CLASSIFICATION_TYPE":"U","NORAD_CAT_ID":66846,"ELEMENT_SET_NO":999,"REV_AT_EPOCH":1611,"BSTAR":0.00054216839,"MEAN_MOTION_DOT":6.383e-5,"MEAN_MOTION_DDOT":0}]
